[
    {
        "Altitude(m)": 612513.8952532263,
        "Argument of Periapsis(deg)": 0.0,
        "Eccentricity": 0.0,
        "Inclination(deg)": 60.0,
        "Latitude(deg)": -28.13584562465472,
        "Longitude(deg)": 92.91312072415901,
        "Mean Anomaly(deg)": -147.27270000000004,
        "RAAN(deg)": 355.0,
        "Satellite Name": "Test1 1575",
        "Satellite Number": 1575,
        "Semi-Major Axis(m)": 6980739.136638005,
        "Time(s)": 0
    },
    {
        "Altitude(m)": 612708.2627782513,
        "Argument of Periapsis(deg)": 0.00010418945913296404,
        "Eccentricity": 0.0,
        "Inclination(deg)": 60.0,
        "Latitude(deg)": -28.647584728059797,
        "Longitude(deg)": 93.27035082966702,
        "Mean Anomaly(deg)": -146.65259385453817,
        "RAAN(deg)": 354.99957995086027,
        "Satellite Name": "Test1 1575",
        "Satellite Number": 1575,
        "Semi-Major Axis(m)": 6980739.136638005,
        "Time(s)": 10
    }
]